start=new Date('2023-03-22T00:00:00.000Z').valueOf();
sats=[{"SITE":"AFETR","OBJECT_ID":"2022-177T","INCLINATION":"43.0002","COUNTRY_CODE":"US","MEAN_MOTION":"15.02548504","RCS_SIZE":"LARGE","SEMIMAJOR_AXIS":"6937.178","LAUNCH_DATE":"2022-12-28","OBJECT_TYPE":"PAYLOAD","CENTER_NAME":"EARTH","MEAN_MOTION_DDOT":"0.0000000000000","ELEMENT_SET_NO":"999","ECCENTRICITY":"0.00015350","TIME_SYSTEM":"UTC","OBJECT_NAME":"STARLINK-5369","REV_AT_EPOCH":"1392","GP_ID":"228622569","TLE_LINE1":"1 54837U 22177T   23080.87454236  .00004465  00000-0  34530-3 0  9995","MEAN_ELEMENT_THEORY":"SGP4","PERIAPSIS":"557.978","EPOCH":"2023-03-21T20:59:20.459904","BSTAR":"0.00034530000000","RA_OF_ASC_NODE":"262.2803","NORAD_CAT_ID":"54837","APOAPSIS":"560.108","ARG_OF_PERICENTER":"268.4671","DECAY_DATE":null,"CLASSIFICATION_TYPE":"U","MEAN_ANOMALY":"91.5995","TLE_LINE2":"2 54837  43.0002 262.2803 0001535 268.4671  91.5995 15.02548504 13926","FILE":"3866953","REF_FRAME":"TEME","MEAN_MOTION_DOT":"0.00004465","PERIOD":"95.837","EPHEMERIS_TYPE":"0"},{"MEAN_MOTION_DDOT":"0.0000000000000","ELEMENT_SET_NO":"999","ECCENTRICITY":"0.00011470","OBJECT_TYPE":"PAYLOAD","CENTER_NAME":"EARTH","COUNTRY_CODE":"US","MEAN_MOTION":"15.02543270","SEMIMAJOR_AXIS":"6937.194","LAUNCH_DATE":"2022-12-28","RCS_SIZE":"LARGE","SITE":"AFETR","INCLINATION":"43.0004","OBJECT_ID":"2022-177U","FILE":"3866953","TLE_LINE2":"2 54838  43.0004 262.5842 0001147 265.1148  94.9564 15.02543270 13910","REF_FRAME":"TEME","MEAN_MOTION_DOT":"0.00002555","EPHEMERIS_TYPE":"0","PERIOD":"95.838","NORAD_CAT_ID":"54838","APOAPSIS":"559.855","ARG_OF_PERICENTER":"265.1148","MEAN_ANOMALY":"94.9564","CLASSIFICATION_TYPE":"U","DECAY_DATE":null,"TLE_LINE1":"1 54838U 22177U   23080.80029786  .00002555  00000-0  20408-3 0  9994","MEAN_ELEMENT_THEORY":"SGP4","EPOCH":"2023-03-21T19:12:25.735104","PERIAPSIS":"558.263","RA_OF_ASC_NODE":"262.5842","BSTAR":"0.00020408000000","OBJECT_NAME":"STARLINK-5372","TIME_SYSTEM":"UTC","GP_ID":"228622819","REV_AT_EPOCH":"1391"},{"ECCENTRICITY":"0.00017750","MEAN_MOTION_DDOT":"0.0000000000000","ELEMENT_SET_NO":"999","OBJECT_TYPE":"PAYLOAD","CENTER_NAME":"EARTH","MEAN_MOTION":"15.02539113","RCS_SIZE":"LARGE","LAUNCH_DATE":"2022-12-28","SEMIMAJOR_AXIS":"6937.207","COUNTRY_CODE":"US","SITE":"AFETR","INCLINATION":"43.0010","OBJECT_ID":"2022-177V","PERIOD":"95.838","EPHEMERIS_TYPE":"0","TLE_LINE2":"2 54839  43.0010 262.5411 0001775 273.7725  86.2914 15.02539113 13917","FILE":"3866953","REF_FRAME":"TEME","MEAN_MOTION_DOT":"0.00001675","DECAY_DATE":null,"CLASSIFICATION_TYPE":"U","MEAN_ANOMALY":"86.2914","NORAD_CAT_ID":"54839","ARG_OF_PERICENTER":"273.7725","APOAPSIS":"560.303","EPOCH":"2023-03-21T19:04:26.257440","PERIAPSIS":"557.841","BSTAR":"0.00013901000000","RA_OF_ASC_NODE":"262.5411","TLE_LINE1":"1 54839U 22177V   23080.79474835  .00001675  00000-0  13901-3 0  9994","MEAN_ELEMENT_THEORY":"SGP4","REV_AT_EPOCH":"1391","GP_ID":"228623071","TIME_SYSTEM":"UTC","OBJECT_NAME":"STARLINK-5110"},{"COUNTRY_CODE":"US","MEAN_MOTION":"15.02543164","RCS_SIZE":"LARGE","SEMIMAJOR_AXIS":"6937.194","LAUNCH_DATE":"2022-12-28","SITE":"AFETR","INCLINATION":"43.0018","OBJECT_ID":"2022-177W","MEAN_MOTION_DDOT":"0.0000000000000","ELEMENT_SET_NO":"999","ECCENTRICITY":"0.00012690","OBJECT_TYPE":"PAYLOAD","CENTER_NAME":"EARTH","TLE_LINE1":"1 54840U 22177W   23080.79141930  .00004274  00000-0  33118-3 0  9993","MEAN_ELEMENT_THEORY":"SGP4","EPOCH":"2023-03-21T18:59:38.627520","PERIAPSIS":"558.179","BSTAR":"0.00033118000000","RA_OF_ASC_NODE":"262.5166","OBJECT_NAME":"STARLINK-5368","TIME_SYSTEM":"UTC","REV_AT_EPOCH":"1391","GP_ID":"228623322","TLE_LINE2":"2 54840  43.0018 262.5166 0001269 261.6820  98.3878 15.02543164 13918","FILE":"3866953","REF_FRAME":"TEME","MEAN_MOTION_DOT":"0.00004274","PERIOD":"95.838","EPHEMERIS_TYPE":"0","NORAD_CAT_ID":"54840","ARG_OF_PERICENTER":"261.6820","APOAPSIS":"559.940","DECAY_DATE":null,"MEAN_ANOMALY":"98.3878","CLASSIFICATION_TYPE":"U"},{"OBJECT_ID":"2022-177X","INCLINATION":"43.0009","SITE":"AFETR","COUNTRY_CODE":"US","RCS_SIZE":"LARGE","LAUNCH_DATE":"2022-12-28","SEMIMAJOR_AXIS":"6937.192","MEAN_MOTION":"15.02544027","CENTER_NAME":"EARTH","OBJECT_TYPE":"PAYLOAD","ELEMENT_SET_NO":"999","MEAN_MOTION_DDOT":"0.0000000000000","ECCENTRICITY":"0.00012810","OBJECT_NAME":"STARLINK-4659","TIME_SYSTEM":"UTC","REV_AT_EPOCH":"1391","GP_ID":"228622070","MEAN_ELEMENT_THEORY":"SGP4","TLE_LINE1":"1 54841U 22177X   23080.80252029  .00003667  00000-0  28631-3 0  9997","RA_OF_ASC_NODE":"262.6035","BSTAR":"0.00028631000000","PERIAPSIS":"558.168","EPOCH":"2023-03-21T19:15:37.753056","ARG_OF_PERICENTER":"278.7148","APOAPSIS":"559.945","NORAD_CAT_ID":"54841","DECAY_DATE":null,"CLASSIFICATION_TYPE":"U","MEAN_ANOMALY":"81.3550","REF_FRAME":"TEME","MEAN_MOTION_DOT":"0.00003667","TLE_LINE2":"2 54841  43.0009 262.6035 0001281 278.7148  81.3550 15.02544027 13919","FILE":"3866953","EPHEMERIS_TYPE":"0","PERIOD":"95.837"},{"TLE_LINE1":"1 54842U 22177Y   23080.78697951  .00002569  00000-0  20518-3 0  9998","MEAN_ELEMENT_THEORY":"SGP4","PERIAPSIS":"558.125","EPOCH":"2023-03-21T18:53:15.029664","RA_OF_ASC_NODE":"262.4797","BSTAR":"0.00020518000000","OBJECT_NAME":"STARLINK-5387","TIME_SYSTEM":"UTC","GP_ID":"228622320","REV_AT_EPOCH":"1391","FILE":"3866953","TLE_LINE2":"2 54842  43.0015 262.4797 0001385 275.1684  84.9000 15.02534717 13915","REF_FRAME":"TEME","MEAN_MOTION_DOT":"0.00002569","PERIOD":"95.838","EPHEMERIS_TYPE":"0","NORAD_CAT_ID":"54842","ARG_OF_PERICENTER":"275.1684","APOAPSIS":"560.046","CLASSIFICATION_TYPE":"U","MEAN_ANOMALY":"84.9000","DECAY_DATE":null,"COUNTRY_CODE":"US","MEAN_MOTION":"15.02534717","SEMIMAJOR_AXIS":"6937.220","LAUNCH_DATE":"2022-12-28","RCS_SIZE":"LARGE","SITE":"AFETR","OBJECT_ID":"2022-177Y","INCLINATION":"43.0015","MEAN_MOTION_DDOT":"0.0000000000000","ELEMENT_SET_NO":"999","ECCENTRICITY":"0.00013850","OBJECT_TYPE":"PAYLOAD","CENTER_NAME":"EARTH"},{"COUNTRY_CODE":"US","MEAN_MOTION":"15.02540509","RCS_SIZE":"LARGE","LAUNCH_DATE":"2022-12-28","SEMIMAJOR_AXIS":"6937.203","SITE":"AFETR","OBJECT_ID":"2022-177Z","INCLINATION":"43.0019","MEAN_MOTION_DDOT":"0.0000000000000","ELEMENT_SET_NO":"999","ECCENTRICITY":"0.00012830","OBJECT_TYPE":"PAYLOAD","CENTER_NAME":"EARTH","TLE_LINE1":"1 54843U 22177Z   23080.79697029  .00001467  00000-0  12366-3 0  9994","MEAN_ELEMENT_THEORY":"SGP4","EPOCH":"2023-03-21T19:07:38.233056","PERIAPSIS":"558.178","BSTAR":"0.00012366000000","RA_OF_ASC_NODE":"262.5585","OBJECT_NAME":"STARLINK-5304","TIME_SYSTEM":"UTC","REV_AT_EPOCH":"1391","GP_ID":"228623571","TLE_LINE2":"2 54843  43.0019 262.5585 0001283 281.9067  78.1632 15.02540509 13915","FILE":"3866953","MEAN_MOTION_DOT":"0.00001467","REF_FRAME":"TEME","PERIOD":"95.838","EPHEMERIS_TYPE":"0","NORAD_CAT_ID":"54843","ARG_OF_PERICENTER":"281.9067","APOAPSIS":"559.958","DECAY_DATE":null,"CLASSIFICATION_TYPE":"U","MEAN_ANOMALY":"78.1632"},{"SITE":"AFETR","OBJECT_ID":"2022-177AA","INCLINATION":"43.0029","COUNTRY_CODE":"US","MEAN_MOTION":"15.01558417","LAUNCH_DATE":"2022-12-28","SEMIMAJOR_AXIS":"6940.227","RCS_SIZE":"LARGE","OBJECT_TYPE":"PAYLOAD","CENTER_NAME":"EARTH","MEAN_MOTION_DDOT":"0.0000000000000","ELEMENT_SET_NO":"999","ECCENTRICITY":"0.00016460","TIME_SYSTEM":"UTC","OBJECT_NAME":"STARLINK-5388","GP_ID":"228591568","REV_AT_EPOCH":"1385","TLE_LINE1":"1 54844U 22177AA  23080.36847936 -.00000626  00000-0 -32232-4 0  9995","MEAN_ELEMENT_THEORY":"SGP4","PERIAPSIS":"560.950","EPOCH":"2023-03-21T08:50:36.616704","RA_OF_ASC_NODE":"264.4820","BSTAR":"-0.00003223200000","NORAD_CAT_ID":"54844","APOAPSIS":"563.235","ARG_OF_PERICENTER":"273.9920","CLASSIFICATION_TYPE":"U","MEAN_ANOMALY":"86.0734","DECAY_DATE":null,"FILE":"3866730","TLE_LINE2":"2 54844  43.0029 264.4820 0001646 273.9920  86.0734 15.01558417 13852","MEAN_MOTION_DOT":"-0.00000626","REF_FRAME":"TEME","EPHEMERIS_TYPE":"0","PERIOD":"95.900"},{"TLE_LINE1":"1 54845U 22177AB  23080.78920153  .00027402  00000-0  20349-2 0  9998","MEAN_ELEMENT_THEORY":"SGP4","PERIAPSIS":"558.263","EPOCH":"2023-03-21T18:56:27.012192","BSTAR":"0.00203490000000","RA_OF_ASC_NODE":"262.5025","TIME_SYSTEM":"UTC","OBJECT_NAME":"STARLINK-5082","REV_AT_EPOCH":"1391","GP_ID":"228622570","TLE_LINE2":"2 54845  43.0012 262.5025 0001123 267.4180  92.6534 15.02548932 13917","FILE":"3866953","MEAN_MOTION_DOT":"0.00027402","REF_FRAME":"TEME","EPHEMERIS_TYPE":"0","PERIOD":"95.837","NORAD_CAT_ID":"54845","APOAPSIS":"559.821","ARG_OF_PERICENTER":"267.4180","DECAY_DATE":null,"MEAN_ANOMALY":"92.6534","CLASSIFICATION_TYPE":"U","COUNTRY_CODE":"US","MEAN_MOTION":"15.02548932","RCS_SIZE":"LARGE","SEMIMAJOR_AXIS":"6937.177","LAUNCH_DATE":"2022-12-28","SITE":"AFETR","INCLINATION":"43.0012","OBJECT_ID":"2022-177AB","MEAN_MOTION_DDOT":"0.0000000000000","ELEMENT_SET_NO":"999","ECCENTRICITY":"0.00011230","OBJECT_TYPE":"PAYLOAD","CENTER_NAME":"EARTH"},{"OBJECT_ID":"2022-177AC","INCLINATION":"43.0025","SITE":"AFETR","RCS_SIZE":"LARGE","SEMIMAJOR_AXIS":"6937.216","LAUNCH_DATE":"2022-12-28","MEAN_MOTION":"15.02536026","COUNTRY_CODE":"US","CENTER_NAME":"EARTH","OBJECT_TYPE":"PAYLOAD","ECCENTRICITY":"0.00013330","ELEMENT_SET_NO":"999","MEAN_MOTION_DDOT":"0.0000000000000","REV_AT_EPOCH":"1385","GP_ID":"228591066","TIME_SYSTEM":"UTC","OBJECT_NAME":"STARLINK-5360","BSTAR":"0.00002883200000","RA_OF_ASC_NODE":"264.6287","EPOCH":"2023-03-21T09:14:05.428320","PERIAPSIS":"558.157","MEAN_ELEMENT_THEORY":"SGP4","TLE_LINE1":"1 54846U 22177AC  23080.38478505  .00000186  00000-0  28832-4 0  9991","DECAY_DATE":null,"MEAN_ANOMALY":"78.2997","CLASSIFICATION_TYPE":"U","APOAPSIS":"560.006","ARG_OF_PERICENTER":"281.7696","NORAD_CAT_ID":"54846","PERIOD":"95.838","EPHEMERIS_TYPE":"0","REF_FRAME":"TEME","MEAN_MOTION_DOT":"0.00000186","TLE_LINE2":"2 54846  43.0025 264.6287 0001333 281.7696  78.2997 15.02536026 13856","FILE":"3866730"}];
